IRIDIUM 36
1 24967U 97056C   24321.75936352  .00000949  00000-0  31233-3 0  9994
2 24967  86.3951 262.1865 0002360  79.5785 280.5678 14.37228706421704
IRIDIUM 39
1 25042U 97069D   24321.70207844  .00001322  00000-0  34569-3 0  9996
2 25042  86.3873 302.2439 0015983 300.6232  59.3395 14.48617991418451
IRIDIUM 38
1 25043U 97069E   24321.43854048  .00000914  00000-0  29771-3 0  9996
2 25043  86.3933 322.6910 0004147  83.9015 276.2655 14.37708062415644
IRIDIUM 42
1 25077U 97077A   24321.60364426  .00000809  00000-0  27204-3 0  9999
2 25077  86.3944 328.5296 0002978  91.2634 268.8904 14.35975510410689
IRIDIUM 44
1 25078U 97077B   24321.71320779  .00000969  00000-0  30247-3 0  9993
2 25078  86.3919 310.9673 0003155  53.7855 306.3635 14.39838439413158
IRIDIUM 51
1 25262U 98018A   24321.26622339  .00030354  00000-0  10865-2 0  9995
2 25262  86.3915 159.7404 0120768 339.4324  20.2077 15.21890770414459
